STARLINK-1035_new
1 14740C 19074AD  21326.16995701  .00004653  00000-0  31165-3 0  3263
2 14740  53.0553  47.9774 0001231  87.9556 131.5337 15.06403816    15
STARLINK-1035_old
1 24740C 19074AD  21325.12883010  .00005970  00000-0  40006-3 0  3253
2 24740  53.0556  52.6508 0001316  87.6102 242.6934 15.06389843    14
